{
  "norad_id": 57418,
  "name": "STARLINK-30221",
  "history": [
    {
      "epoch": "2026-03-28T20:00:01.999872Z",
      "apogee_km": 530.8360396472799,
      "perigee_km": 528.7343733951675,
      "latitude_deg": 26.508261180334078,
      "longitude_deg": 164.64444308862403,
      "height_km": 530.4323862320757,
      "semi_major_axis_km": 6907.922206521223,
      "eccentricity": 0.00015212,
      "inclination_deg": 43.0003,
      "raan_deg": 143.0357,
      "arg_perigee_deg": 263.1532,
      "mean_anomaly_deg": 236.1505,
      "mean_motion_rev_day": 15.121038
    },
    {
      "epoch": "2026-03-29T04:00:01.999584Z",
      "apogee_km": 531.7758909037329,
      "perigee_km": 529.4697468761879,
      "latitude_deg": 16.067351008076947,
      "longitude_deg": 56.720832863649264,
      "height_km": 530.1763759623107,
      "semi_major_axis_km": 6908.75981888996,
      "eccentricity": 0.0001669,
      "inclination_deg": 43.0,
      "raan_deg": 141.1943,
      "arg_perigee_deg": 269.0443,
      "mean_anomaly_deg": 247.0917,
      "mean_motion_rev_day": 15.11828819
    },
    {
      "epoch": "2026-03-30T04:00:01.999584Z",
      "apogee_km": 533.6345849406853,
      "perigee_km": 531.9427903323531,
      "latitude_deg": -16.733577192744217,
      "longitude_deg": 86.81494493295165,
      "height_km": 535.9949620211595,
      "semi_major_axis_km": 6910.925687636519,
      "eccentricity": 0.0001224,
      "inclination_deg": 43.0005,
      "raan_deg": 135.6842,
      "arg_perigee_deg": 280.3109,
      "mean_anomaly_deg": 284.4539,
      "mean_motion_rev_day": 15.11118169
    },
    {
      "epoch": "2026-03-30T06:00:02.000160Z",
      "apogee_km": 533.5906500511537,
      "perigee_km": 531.9555287240037,
      "latitude_deg": -36.943532929809585,
      "longitude_deg": 164.249857903257,
      "height_km": 542.7573186751948,
      "semi_major_axis_km": 6910.910089387578,
      "eccentricity": 0.0001183,
      "inclination_deg": 43.0004,
      "raan_deg": 135.2241,
      "arg_perigee_deg": 301.8208,
      "mean_anomaly_deg": 356.8081,
      "mean_motion_rev_day": 15.11123285
    },
    {
      "epoch": "2026-03-30T14:00:03.000384Z",
      "apogee_km": 533.9192085133618,
      "perigee_km": 532.0634323367613,
      "latitude_deg": -29.46636588682863,
      "longitude_deg": 58.35371604901782,
      "height_km": 539.8905402058165,
      "semi_major_axis_km": 6911.128320425061,
      "eccentricity": 0.00013426,
      "inclination_deg": 43.0008,
      "raan_deg": 133.3917,
      "arg_perigee_deg": 307.1346,
      "mean_anomaly_deg": 7.0232,
      "mean_motion_rev_day": 15.11051711
    },
    {
      "epoch": "2026-03-30T22:00:00.999936Z",
      "apogee_km": 533.8221954190658,
      "perigee_km": 532.1199894958936,
      "latitude_deg": -20.447550682653638,
      "longitude_deg": -50.18314788019351,
      "height_km": 537.0004432480794,
      "semi_major_axis_km": 6911.108092457479,
      "eccentricity": 0.00012315,
      "inclination_deg": 43.0004,
      "raan_deg": 131.5523,
      "arg_perigee_deg": 280.0462,
      "mean_anomaly_deg": 49.3781,
      "mean_motion_rev_day": 15.11058345
    },
    {
      "epoch": "2026-03-31T20:00:01.999008Z",
      "apogee_km": 533.7618248885819,
      "perigee_km": 532.0423583625843,
      "latitude_deg": -42.05269485688906,
      "longitude_deg": -76.8707342786481,
      "height_km": 544.9500175407147,
      "semi_major_axis_km": 6911.039091625583,
      "eccentricity": 0.0001244,
      "inclination_deg": 43.0004,
      "raan_deg": 126.5046,
      "arg_perigee_deg": 286.3154,
      "mean_anomaly_deg": 355.429,
      "mean_motion_rev_day": 15.11080975
    },
    {
      "epoch": "2026-04-01T20:00:01.999008Z",
      "apogee_km": 533.6744279173045,
      "perigee_km": 532.0710736551218,
      "latitude_deg": -21.404520636779406,
      "longitude_deg": -33.91273550402085,
      "height_km": 537.173423917209,
      "semi_major_axis_km": 6911.009750786213,
      "eccentricity": 0.000116,
      "inclination_deg": 43.0001,
      "raan_deg": 120.9976,
      "arg_perigee_deg": 286.4313,
      "mean_anomaly_deg": 41.4633,
      "mean_motion_rev_day": 15.11090598
    },
    {
      "epoch": "2026-04-02T20:00:01.999008Z",
      "apogee_km": 533.6004161084447,
      "perigee_km": 532.1795089649477,
      "latitude_deg": 9.556464927582951,
      "longitude_deg": -5.35033876666913,
      "height_km": 531.9324563468233,
      "semi_major_axis_km": 6911.0269625366955,
      "eccentricity": 0.0001028,
      "inclination_deg": 43.0,
      "raan_deg": 115.4909,
      "arg_perigee_deg": 283.998,
      "mean_anomaly_deg": 90.0788,
      "mean_motion_rev_day": 15.11084953
    },
    {
      "epoch": "2026-04-02T22:00:01.999584Z",
      "apogee_km": 533.6893788164452,
      "perigee_km": 532.2330721983653,
      "latitude_deg": 40.60573349924055,
      "longitude_deg": 67.66170107974027,
      "height_km": 536.2885872194594,
      "semi_major_axis_km": 6911.098225507405,
      "eccentricity": 0.00010536,
      "inclination_deg": 42.9998,
      "raan_deg": 115.0319,
      "arg_perigee_deg": 279.298,
      "mean_anomaly_deg": 188.6394,
      "mean_motion_rev_day": 15.11061581
    },
    {
      "epoch": "2026-04-03T11:48:11.885472Z",
      "apogee_km": 533.5342260786565,
      "perigee_km": 532.3242366028735,
      "latitude_deg": -7.859702447081397e-06,
      "longitude_deg": 102.99122358660104,
      "height_km": 532.4854585304396,
      "semi_major_axis_km": 6911.066231340765,
      "eccentricity": 8.754e-05,
      "inclination_deg": 43.002,
      "raan_deg": 111.8661,
      "arg_perigee_deg": 291.5126,
      "mean_anomaly_deg": 68.5626,
      "mean_motion_rev_day": 15.11072074
    },
    {
      "epoch": "2026-04-04T02:04:52.203648Z",
      "apogee_km": 533.4904582736972,
      "perigee_km": 532.3408737732316,
      "latitude_deg": -1.8427957321540422e-06,
      "longitude_deg": -115.039733644937,
      "height_km": 532.5536660178462,
      "semi_major_axis_km": 6911.052666023465,
      "eccentricity": 8.317e-05,
      "inclination_deg": 43.0021,
      "raan_deg": 108.5895,
      "arg_perigee_deg": 284.1047,
      "mean_anomaly_deg": 75.9706,
      "mean_motion_rev_day": 15.11076523
    },
    {
      "epoch": "2026-04-05T09:48:36.374112Z",
      "apogee_km": 533.5940063007356,
      "perigee_km": 532.289471078021,
      "latitude_deg": 4.2415312178684216e-05,
      "longitude_deg": 120.44310724162968,
      "height_km": 532.7018863408575,
      "semi_major_axis_km": 6911.078738689378,
      "eccentricity": 9.438e-05,
      "inclination_deg": 43.0028,
      "raan_deg": 101.3094,
      "arg_perigee_deg": 271.5906,
      "mean_anomaly_deg": 88.4832,
      "mean_motion_rev_day": 15.11067972
    },
    {
      "epoch": "2026-04-05T17:44:31.178400Z",
      "apogee_km": 533.5616786157752,
      "perigee_km": 532.1615103005379,
      "latitude_deg": 3.0305060001930838e-05,
      "longitude_deg": -0.6807086157113766,
      "height_km": 532.6714363803886,
      "semi_major_axis_km": 6910.998594458156,
      "eccentricity": 0.0001013,
      "inclination_deg": 43.0035,
      "raan_deg": 99.4897,
      "arg_perigee_deg": 267.4245,
      "mean_anomaly_deg": 92.6485,
      "mean_motion_rev_day": 15.11094257
    },
    {
      "epoch": "2026-04-06T01:40:27.731424Z",
      "apogee_km": 533.5192121392374,
      "perigee_km": 532.3455743348786,
      "latitude_deg": -6.07065803789335e-07,
      "longitude_deg": -121.81205091899447,
      "height_km": 532.925510308562,
      "semi_major_axis_km": 6911.069393237058,
      "eccentricity": 8.491e-05,
      "inclination_deg": 43.003,
      "raan_deg": 97.6698,
      "arg_perigee_deg": 248.5065,
      "mean_anomaly_deg": 111.569,
      "mean_motion_rev_day": 15.11071037
    },
    {
      "epoch": "2026-04-07T06:13:51.009888Z",
      "apogee_km": 533.6681687739538,
      "perigee_km": 532.3127584557888,
      "latitude_deg": 4.1315880370473e-05,
      "longitude_deg": 162.11972472109446,
      "height_km": 532.4983976864318,
      "semi_major_axis_km": 6911.127463614871,
      "eccentricity": 9.806e-05,
      "inclination_deg": 43.003,
      "raan_deg": 91.1213,
      "arg_perigee_deg": 293.5096,
      "mean_anomaly_deg": 66.5647,
      "mean_motion_rev_day": 15.11051992
    },
    {
      "epoch": "2026-04-07T15:44:58.526880Z",
      "apogee_km": 533.6772352823818,
      "perigee_km": 532.2701331470762,
      "latitude_deg": 9.30205039849426e-06,
      "longitude_deg": 16.761447254290612,
      "height_km": 532.7684593172293,
      "semi_major_axis_km": 6911.110684214729,
      "eccentricity": 0.0001018,
      "inclination_deg": 43.0023,
      "raan_deg": 88.9353,
      "arg_perigee_deg": 268.6552,
      "mean_anomaly_deg": 91.4177,
      "mean_motion_rev_day": 15.11057495
    },
    {
      "epoch": "2026-04-08T01:16:05.979072Z",
      "apogee_km": 533.6003122521752,
      "perigee_km": 532.3578318047457,
      "latitude_deg": 6.0826827609913e-06,
      "longitude_deg": -128.5948287760727,
      "height_km": 532.8144346180994,
      "semi_major_axis_km": 6911.116072028461,
      "eccentricity": 8.989e-05,
      "inclination_deg": 43.0013,
      "raan_deg": 86.751,
      "arg_perigee_deg": 264.7056,
      "mean_anomaly_deg": 95.3687,
      "mean_motion_rev_day": 15.11055728
    },
    {
      "epoch": "2026-04-09T15:20:34.691424Z",
      "apogee_km": 533.529698237835,
      "perigee_km": 532.381074683206,
      "latitude_deg": -3.8822199874543086e-05,
      "longitude_deg": 9.988313755157073,
      "height_km": 532.8277115733651,
      "semi_major_axis_km": 6911.09238646052,
      "eccentricity": 8.31e-05,
      "inclination_deg": 43.002,
      "raan_deg": 78.0175,
      "arg_perigee_deg": 260.5517,
      "mean_anomaly_deg": 99.5234,
      "mean_motion_rev_day": 15.11063496
    }
  ]
}